[{"OBJECT_NAME":"STARLINK-30949","OBJECT_ID":"2023-180P","EPOCH":"2026-03-09T00:35:46.058496","MEAN_MOTION":15.27571086,"ECCENTRICITY":0.0001604,"INCLINATION":43.0054,"RA_OF_ASC_NODE":56.3333,"ARG_OF_PERICENTER":281.2638,"MEAN_ANOMALY":78.8034,"EPHEMERIS_TYPE":0,"CLASSIFICATION_TYPE":"U","NORAD_CAT_ID":58415,"ELEMENT_SET_NO":999,"REV_AT_EPOCH":12752,"BSTAR":-1.075297e-5,"MEAN_MOTION_DOT":-5.58e-6,"MEAN_MOTION_DDOT":0},{"OBJECT_NAME":"CZ-6A DEB","OBJECT_ID":"2024-140KE","EPOCH":"2026-03-09T13:17:54.060288","MEAN_MOTION":15.16973657,"ECCENTRICITY":0.0047014,"INCLINATION":88.8608,"RA_OF_ASC_NODE":269.4441,"ARG_OF_PERICENTER":134.0266,"MEAN_ANOMALY":226.4867,"EPHEMERIS_TYPE":0,"CLASSIFICATION_TYPE":"U","NORAD_CAT_ID":60875,"ELEMENT_SET_NO":999,"REV_AT_EPOCH":8467,"BSTAR":0.004516425,"MEAN_MOTION_DOT":0.00092692,"MEAN_MOTION_DDOT":0}]
